H1 CPF 01  gfz 2021 10 03 00  7761 tandemx   
H2 1003001  6202 36605    2021 10 03 00 59 42 2021 10 08 00 00 42   120 1 1  0 0 0
H9
10 0 59494   5742.000000  0    2513942.780   6244569.687   1458727.921
10 0 59494   5862.000000  0    2730856.913   6299559.166    564204.647
10 0 59494   5982.000000  0    2900017.625   6241077.218   -340250.345
10 0 59494   6102.000000  0    3016524.270   6071077.442  -1238722.557
10 0 59494   6222.000000  0    3076459.461   5793555.233  -2115421.471
10 0 59494   6342.000000  0    3076990.873   5414453.364  -2954965.064
10 0 59494   6462.000000  0    3016450.515   4941528.954  -3742655.388
10 0 59494   6582.000000  0    2894388.710   4384185.503  -4464737.383
10 0 59494   6702.000000  0    2711602.534   3753277.021  -5108636.407
10 0 59494   6822.000000  0    2470138.862   3060888.496  -5663170.976
10 0 59494   6942.000000  0    2173273.102   2320098.091  -6118738.290
10 0 59494   7062.000000  0    1825462.962   1544726.015  -6467469.457
10 0 59494   7182.000000  0    1432280.223    749076.456  -6703353.135
10 0 59494   7302.000000  0    1000321.629    -52323.136  -6822329.408
10 0 59494   7422.000000  0     537098.165   -844982.708  -6822352.680
10 0 59494   7542.000000  0      50906.370  -1614705.658  -6703421.317
10 0 59494   7662.000000  0    -449315.845  -2347835.338  -6467577.308
10 0 59494   7782.000000  0    -954149.188  -3031492.218  -6118876.929
10 0 59494   7902.000000  0   -1453865.864  -3653797.942  -5663327.895
10 0 59494   8022.000000  0   -1938612.196  -4204081.155  -5108796.359
10 0 59494   8142.000000  0   -2398599.772  -4673064.719  -4464883.596
10 0 59494   8262.000000  0   -2824301.854  -5053029.406  -3742770.479
10 0 59494   8382.000000  0   -3206650.004  -5337949.190  -2955032.069
10 0 59494   8502.000000  0   -3537227.111  -5523596.280  -2115425.303
10 0 59494   8622.000000  0   -3808453.051  -5607612.808  -1238651.679
10 0 59494   8742.000000  0   -4013757.542  -5589546.271   -340098.262
10 0 59494   8862.000000  0   -4147734.920  -5470846.833    564437.624
10 0 59494   8982.000000  0   -4206277.146  -5254826.174   1459033.901
10 0 59494   9102.000000  0   -4186681.205  -4946577.898   2327933.675
10 0 59494   9222.000000  0   -4087727.393  -4552861.371   3155831.631
10 0 59494   9342.000000  0   -3909727.542  -4081953.350   3928150.782
10 0 59494   9462.000000  0   -3654541.617  -3543470.682   4631304.774
10 0 59494   9582.000000  0   -3325562.053  -2948167.839   5252938.941
10 0 59494   9702.000000  0   -2927667.624  -2307716.517   5782145.520
10 0 59494   9822.000000  0   -2467147.851  -1634472.851   6209651.543
10 0 59494   9942.000000  0   -1951600.029   -941235.563   6527977.542
10 0 59494  10062.000000  0   -1389799.130   -240998.708   6731563.232
10 0 59494  10182.000000  0    -791545.201    453292.348   6816856.171
10 0 59494  10302.000000  0    -167492.739   1128978.679   6782369.912
10 0 59494  10422.000000  0     471038.837   1773918.281   6628708.764
10 0 59494  10542.000000  0    1112270.256   2376704.369   6358557.726
10 0 59494  10662.000000  0    1744178.970   2926866.886   5976637.711
10 0 59494  10782.000000  0    2354723.760   3415055.692   5489628.668
10 0 59494  10902.000000  0    2932075.219   3833203.541   4906059.581
10 0 59494  11022.000000  0    3464847.925   4174664.047   4236163.680
10 0 59494  11142.000000  0    3942326.642   4434321.055   3491703.553
10 0 59494  11262.000000  0    4354686.965   4608671.509   2685769.128
10 0 59494  11382.000000  0    4693202.968   4695874.079   1832543.948
10 0 59494  11502.000000  0    4950432.406   4695764.946    947052.646
10 0 59494  11622.000000  0    5120382.562   4609839.640     44890.115
10 0 59494  11742.000000  0    5198645.477   4441199.715   -858063.178
10 0 59494  11862.000000  0    5182500.546   4194466.534  -1745929.136
10 0 59494  11982.000000  0    5070984.247   3875665.105  -2603118.545
10 0 59494  12102.000000  0    4864924.436   3492080.704  -3414610.443
10 0 59494  12222.000000  0    4566938.095   3052093.203  -4166218.130
10 0 59494  12342.000000  0    4181393.420   2564992.815  -4844836.992
10 0 59494  12462.000000  0    3714338.418   2040781.119  -5438668.321
10 0 59494  12582.000000  0    3173398.326   1489963.974  -5937416.424
10 0 59494  12702.000000  0    2567643.721    923340.927  -6332457.139
10 0 59494  12822.000000  0    1907433.186    351794.918  -6616974.950
10 0 59494  12942.000000  0    1204235.316   -213912.960  -6786069.066
10 0 59494  13062.000000  0     470431.013   -763341.969  -6836830.655
10 0 59494  13182.000000  0    -280901.988  -1286559.997  -6768385.990
10 0 59494  13302.000000  0   -1036215.833  -1774317.630  -6581909.148
10 0 59494  13422.000000  0   -1781730.923  -2218207.882  -6280605.261
10 0 59494  13542.000000  0   -2503681.781  -2610809.296  -5869661.010
10 0 59494  13662.000000  0   -3188566.008  -2945809.318  -5356164.866
10 0 59494  13782.000000  0   -3823395.529  -3218108.220  -4748997.450
10 0 59494  13902.000000  0   -4395945.073  -3423900.363  -4058688.813
10 0 59494  14022.000000  0   -4894991.552  -3560730.131  -3297245.838
10 0 59494  14142.000000  0   -5310540.753  -3627522.165  -2477951.247
10 0 59494  14262.000000  0   -5634035.456  -3624584.239  -1615135.782
10 0 59494  14382.000000  0   -5858538.960  -3553581.833   -723927.820
10 0 59494  14502.000000  0   -5978889.794  -3417484.968    180015.094
10 0 59494  14622.000000  0   -5991823.217  -3220488.124   1080787.509
10 0 59494  14742.000000  0   -5896055.124  -2967904.750   1962525.670
10 0 59494  14862.000000  0   -5692324.112  -2666037.812   2809696.677
10 0 59494  14982.000000  0   -5383393.362  -2322031.831   3607379.528
10 0 59494  15102.000000  0   -4974011.726  -1943709.323   4341535.555
10 0 59494  15222.000000  0   -4470833.316  -1539394.575   4999258.638
10 0 59494  15342.000000  0   -3882301.513  -1117732.341   5569000.864
10 0 59494  15462.000000  0   -3218500.306   -687504.565   6040773.178
10 0 59494  15582.000000  0   -2490973.819   -257447.575   6406317.345
10 0 59494  15702.000000  0   -1712517.957    163924.957   6659244.241
10 0 59494  15822.000000  0    -896951.043    568488.433   6795138.354
10 0 59494  15942.000000  0     -58867.288    948662.429   6811629.989
10 0 59494  16062.000000  0     786624.041   1297551.855   6708433.705
10 0 59494  16182.000000  0    1624170.169   1609072.103   6487353.050
10 0 59494  16302.000000  0    2438452.780   1878055.375   6152250.442
10 0 59494  16422.000000  0    3214467.913   2100336.683   5708984.416
10 0 59494  16542.000000  0    3937805.153   2272818.921   5165313.130
10 0 59494  16662.000000  0    4594918.583   2393515.575   4530764.140
10 0 59494  16782.000000  0    5173386.103   2461571.289   3816474.157
10 0 59494  16902.000000  0    5662154.993   2477258.297   3034996.778
10 0 59494  17022.000000  0    6051760.070   2441947.577   2200080.066
10 0 59494  17142.000000  0    6334515.239   2358058.064   1326423.911
10 0 59494  17262.000000  0    6504672.474   2228982.532    429415.129
10 0 59494  17382.000000  0    6558541.927   2058992.841   -475151.814
10 0 59494  17502.000000  0    6494569.170   1853126.894  -1371362.512
10 0 59494  17622.000000  0    6313370.606   1617060.029  -2243468.997
10 0 59494  17742.000000  0    6017727.800   1356964.519  -3076174.003
10 0 59494  17862.000000  0    5612535.714   1079360.030  -3854904.395
10 0 59494  17982.000000  0    5104709.821    790959.948  -4566067.317
10 0 59494  18102.000000  0    4503054.765    498517.725  -5197284.059
10 0 59494  18222.000000  0    3818100.406    208676.485  -5737598.032
10 0 59494  18342.000000  0    3061908.619    -72174.401  -6177655.622
10 0 59494  18462.000000  0    2247853.946   -338033.341  -6509857.650
10 0 59494  18582.000000  0    1390384.581   -583408.987  -6728478.340
10 0 59494  18702.000000  0     504767.915   -803428.894  -6829755.035
10 0 59494  18822.000000  0    -393178.287   -993932.187  -6811945.693
10 0 59494  18942.000000  0   -1287361.470  -1151545.336  -6675354.707
10 0 59494  19062.000000  0   -2161695.936  -1273740.499  -6422329.080
10 0 59494  19182.000000  0   -3000385.990  -1358875.254  -6057221.523
10 0 59494  19302.000000  0   -3788204.816  -1406213.486  -5586323.707
10 0 59494  19422.000000  0   -4510770.091  -1415927.591  -5017770.165
10 0 59494  19542.000000  0   -5154809.539  -1389080.959  -4361408.918
10 0 59494  19662.000000  0   -5708410.566  -1327591.226  -3628642.014
10 0 59494  19782.000000  0   -6161250.612  -1234174.824  -2832236.681
10 0 59494  19902.000000  0   -6504801.507  -1112273.358  -1986108.219
10 0 59494  20022.000000  0   -6732502.352   -965963.294  -1105078.819
10 0 59494  20142.000000  0   -6839897.036   -799850.973   -204615.760
10 0 59494  20262.000000  0   -6824730.475   -618953.988    699446.352
10 0 59494  20382.000000  0   -6687001.041   -428573.657   1591191.399
10 0 59494  20502.000000  0   -6428968.075   -234161.781   2454911.190
10 0 59494  20622.000000  0   -6055113.417    -41184.200   3275391.196
10 0 59494  20742.000000  0   -5572057.676    145015.104   4038186.427
10 0 59494  20862.000000  0   -4988433.802    319345.280   4729880.575
10 0 59494  20982.000000  0   -4314722.234    477092.104   5338323.082
10 0 59494  21102.000000  0   -3563053.063    614031.562   5852840.468
10 0 59494  21222.000000  0   -2746978.688    726530.019   6264420.287
10 0 59494  21342.000000  0   -1881222.067    811628.916   6565863.813
10 0 59494  21462.000000  0    -981405.372    867113.724   6751906.337
10 0 59494  21582.000000  0     -63765.407    891564.757   6819302.275
10 0 59494  21702.000000  0     855139.027    884389.095   6766877.560
10 0 59494  21822.000000  0    1758724.685    845833.754   6595548.752
10 0 59494  21942.000000  0    2630682.043    776979.623   6308308.132
10 0 59494  22062.000000  0    3455269.713    679716.006   5910175.471
10 0 59494  22182.000000  0    4217601.233    556696.320   5408115.255
99
